COSMOS 2550             
1 48865U 21056A   26067.47400841 -.00000192  00000+0 -13338-7 0  9992
2 48865  67.1451  44.6088 0008369 269.6014  90.4182 15.33829151263273
STARLINK-31786          
1 59771U 24091U   26068.30985901 -.00000558  00000+0 -67258-5 0  9994
2 59771  53.1616  28.8329 0001242  65.6033 294.5097 15.30193136102941
